NORAD_CAT_ID,OBJECT_NAME,OBJECT_TYPE,EPOCH,MEAN_MOTION,ECCENTRICITY,INCLINATION,RA_OF_ASC_NODE,ARG_OF_PERICENTER,MEAN_ANOMALY,BSTAR,MEAN_MOTION_DOT,MEAN_MOTION_DDOT,TLE_LINE0,TLE_LINE1,TLE_LINE2,SEMIMAJOR_AXIS,PERIOD,APOGEE,PERIGEE,DECAYED
53998.0,STARLINK-5128,PAYLOAD,2022-10-11 18:00:00,15.81562985,0.0001336,53.2174,63.0313,41.4635,14.8608,-0.00662,-0.01200109,0.0,0 STARLINK-5128,1 53998U 22125AL  22284.75001157 -.01200109  00000-0 -66200-2 0  9991,2 53998  53.2174  63.0313 0001336  41.4635  14.8608 15.81562985  1301,6704.156999999997,91.049,326.918,325.126,0.0
53998.0,STARLINK-5128,PAYLOAD,2022-10-12 12:00:00,15.79611033,0.0001309,53.2178,59.2776,37.8572,328.4952,-0.0072534999999999,-0.01200782,0.0,0 STARLINK-5128,1 53998U 22125AL  22285.50001157 -.01200782  00000-0 -72535-2 0  9990,2 53998  53.2178  59.2776 0001309  37.8572 328.4952 15.79611033  1418,6709.679,91.162,332.422,330.666,0.0
53998.0,STARLINK-5128,PAYLOAD,2022-10-12 14:00:01,15.79389626,0.0001535,53.2175,58.8621,39.0682,81.4071,-0.0072783999999999,-0.01193717,0.0,0 STARLINK-5128,1 53998U 22125AL  22285.58334491 -.01193717  00000-0 -72784-2 0  9993,2 53998  53.2175  58.8621 0001535  39.0682  81.4071 15.79389626  1302,6710.306,91.174,333.201,331.141,0.0
53998.0,STARLINK-5128,PAYLOAD,2022-10-12 22:00:00,15.7852461,0.0001476999999999,53.217,57.1988,42.0039,174.3045,-0.0076018,-0.01197841,0.0,0 STARLINK-5128,1 53998U 22125AL  22285.91667824 -.01197841  00000-0 -76018-2 0  9995,2 53998  53.2170  57.1988 0001477  42.0039 174.3045 15.78524610  1306,6712.757,91.224,335.6140000000001,333.631,0.0
53998.0,STARLINK-5128,PAYLOAD,2022-10-13 04:00:00,15.77870485,0.0001409,53.2174,55.9509,44.7812,152.7205,-0.0077906,-0.01192325,0.0,0 STARLINK-5128,1 53998U 22125AL  22286.16667824 -.01192325  00000-0 -77906-2 0  9992,2 53998  53.2174  55.9509 0001409  44.7812 152.7205 15.77870485  1523,6714.611999999999,91.262,337.423,335.531,0.0
53998.0,STARLINK-5128,PAYLOAD,2022-10-13 14:00:01,15.76788137,0.0001773,53.2174,53.8776,25.9739,18.8744,-0.0082072999999999,-0.01196104,0.0,0 STARLINK-5128,1 53998U 22125AL  22286.58334491 -.01196104  00000-0 -82073-2 0  9999,2 53998  53.2174  53.8776 0001773  25.9739  18.8744 15.76788137  1306,6717.685,91.325,340.741,338.3590000000001,0.0
53998.0,STARLINK-5128,PAYLOAD,2022-10-13 16:00:00,15.76569809,0.0001885,53.2173,53.4635,31.0063,127.1163,-0.008269,-0.01193749,0.0,0 STARLINK-5128,1 53998U 22125AL  22286.66667824 -.01193749  00000-0 -82690-2 0  9994,2 53998  53.2173  53.4635 0001885  31.0063 127.1163 15.76569809  1602,6718.305,91.338,341.436,338.903,0.0
53998.0,STARLINK-5128,PAYLOAD,2022-10-13 22:00:00,15.75919696,0.0001869,53.2173,52.2206,27.934,109.6198,-0.008523,-0.0119511,0.0,0 STARLINK-5128,1 53998U 22125AL  22286.91667824 -.01195110  00000-0 -85230-2 0  9999,2 53998  53.2173  52.2206 0001869  27.9340 109.6198 15.75919696  1309,6720.151999999999,91.375,343.273,340.761,0.0
53998.0,STARLINK-5128,PAYLOAD,2022-10-14 14:00:01,15.74062027,0.0001561999999999,53.2175,48.9124,29.5826,290.274,-0.0065696,-0.00864773,0.0,0 STARLINK-5128,1 53998U 22125AL  22287.58334491 -.00864773  00000-0 -65696-2 0  9995,2 53998  53.2175  48.9124 0001562  29.5826 290.2740 15.74062027  1743,6725.439,91.483,348.35400000000016,346.25300000000016,0.0
53998.0,STARLINK-5128,PAYLOAD,2022-10-14 18:00:00,15.73613333,0.0001749,53.2176,48.0874,25.9068,158.8619,-0.0038894,-0.00523138,0.0,0 STARLINK-5128,1 53998U 22125AL  22287.75001157 -.00523138  00000-0 -38894-2 0  9991,2 53998  53.2176  48.0874 0001749  25.9068 158.8619 15.73613333  1770,6726.717,91.509,349.759,347.405,0.0
53998.0,STARLINK-5128,PAYLOAD,2022-10-15 04:00:00,15.73202009,0.0001458,53.2173,46.0227,42.7789,343.4208,2.7969e-05,3.307e-05,0.0,0 STARLINK-5128,1 53998U 22125AL  22288.16667824  .00003307  00000-0  27969-4 0  9998,2 53998  53.2173  46.0227 0001458  42.7789 343.4208 15.73202009  1838,6727.889,91.533,350.735,348.774,0.0
53998.0,STARLINK-5128,PAYLOAD,2022-10-15 14:00:01,15.732309,0.0001635,53.2198,43.9709,12.683,214.5402,0.00061148,0.00086197,0.0,0 STARLINK-5128,1 53998U 22125AL  22288.58334491  .00086197  00000-0  61148-3 0  9999,2 53998  53.2198  43.9709 0001635  12.6830 214.5402 15.73230900  1909,6727.807,91.531,350.772,348.57199999999995,0.0
53998.0,STARLINK-5128,PAYLOAD,2022-10-15 20:00:01,15.73285188,0.000177,53.219,42.7342,14.3408,189.6644,1.9355e-05,2.106e-05,0.0,0 STARLINK-5128,1 53998U 22125AL  22288.83335648  .00002106  00000-0  19355-4 0  9994,2 53998  53.2190  42.7342 0001770  14.3408 189.6644 15.73285188  1943,6727.651999999999,91.528,350.708,348.327,0.0
53998.0,STARLINK-5128,PAYLOAD,2022-10-15 22:00:01,15.73327997,0.0001786999999999,53.2189,42.3212,15.5672,300.6842,-0.00069176,-0.00097127,0.0,0 STARLINK-5128,1 53998U 22125AL  22288.91668981 -.00097127  00000-0 -69176-3 0  9996,2 53998  53.2189  42.3212 0001787  15.5672 300.6842 15.73327997  1307,6727.53,91.526,350.597,348.1930000000001,0.0
53998.0,STARLINK-5128,PAYLOAD,2022-10-16 04:00:00,15.73237913,0.0001759,53.2187,41.0826,26.9639,266.0112,-7.9972e-05,-0.00011847,0.0,0 STARLINK-5128,1 53998U 22125AL  22289.16667824 -.00011847  00000-0 -79972-4 0  9990,2 53998  53.2187  41.0826 0001759  26.9639 266.0112 15.73237913  1998,6727.7869999999975,91.531,350.836,348.469,0.0
53998.0,STARLINK-5128,PAYLOAD,2022-10-16 14:00:01,15.73209416,0.000213,53.2183,39.0225,30.4794,103.7075,-0.00034719,-0.00049088,0.0,0 STARLINK-5128,1 53998U 22125AL  22289.58334491 -.00049088  00000-0 -34719-3 0  9994,2 53998  53.2183  39.0225 0002130  30.4794 103.7075 15.73209416  1307,6727.868,91.533,351.166,348.3,0.0
53998.0,STARLINK-5128,PAYLOAD,2022-10-16 20:00:01,15.731604699999998,0.0002165,53.2176,37.7853,27.5704,83.3108,0.0006816,0.00095979,0.0,0 STARLINK-5128,1 53998U 22125AL  22289.83334491  .00095979  00000-0  68160-3 0  9997,2 53998  53.2176  37.7853 0002165  27.5704  83.3108 15.73160470  2102,6728.0080000000025,91.535,351.329,348.416,0.0
53998.0,STARLINK-5128,PAYLOAD,2022-10-16 22:00:00,15.73168831,0.0002099,53.2178,37.3728,29.606,193.4455,0.00022517,0.00031057,0.0,0 STARLINK-5128,1 53998U 22125AL  22289.91667824  .00031057  00000-0  22517-3 0  9998,2 53998  53.2178  37.3728 0002099  29.6060 193.4455 15.73168831  1303,6727.984,91.535,351.261,348.43699999999984,0.0
53998.0,STARLINK-5128,PAYLOAD,2022-10-17 04:00:00,15.73193387,0.0001950999999999,53.2178,36.1337,34.2233,165.5047,5.7902e-05,7.511e-05,0.0,0 STARLINK-5128,1 53998U 22125AL  22290.16667824  .00007511  00000-0  57902-4 0  9992,2 53998  53.2178  36.1337 0001951  34.2233 165.5047 15.73193387  2151,6727.9140000000025,91.534,351.092,348.466,0.0
53998.0,STARLINK-5128,PAYLOAD,2022-10-17 14:00:01,15.73199779,0.0002319999999999,53.2182,34.0732,34.9403,5.9620000000000015,0.00037287,0.00052037,0.0,0 STARLINK-5128,1 53998U 22125AL  22290.58334491  .00052037  00000-0  37287-3 0  9995,2 53998  53.2182  34.0732 0002320  34.9403   5.9620 15.73199779  1300,6727.896,91.533,351.32199999999995,348.2,0.0
53998.0,STARLINK-5128,PAYLOAD,2022-10-17 20:00:01,15.73271844,0.0002305,53.2182,32.8373,29.0038,348.6414,-0.00031619,-0.00044903,0.0,0 STARLINK-5128,1 53998U 22125AL  22290.83334491 -.00044903  00000-0 -31619-3 0  9991,2 53998  53.2182  32.8373 0002305  29.0038 348.6414 15.73271844  2256,6727.69,91.529,351.106,348.005,0.0
53998.0,STARLINK-5128,PAYLOAD,2022-10-17 22:00:00,15.73285191,0.0002234999999999,53.2184,32.4243,29.406,100.4849,-0.00061308,-0.00086111,0.0,0 STARLINK-5128,1 53998U 22125AL  22290.91667824 -.00086111  00000-0 -61308-3 0  9994,2 53998  53.2184  32.4243 0002235  29.4060 100.4849 15.73285191  1302,6727.651999999999,91.528,351.021,348.014,0.0
53998.0,STARLINK-5128,PAYLOAD,2022-10-18 14:00:01,15.73233513,0.0002231999999999,53.2182,29.1259,21.493,286.3333,-0.00042695,-0.00060207,0.0,0 STARLINK-5128,1 53998U 22125AL  22291.58334491 -.00060207  00000-0 -42695-3 0  9995,2 53998  53.2182  29.1259 0002232  21.4930 286.3333 15.73233513  1308,6727.8,91.531,351.166,348.163,0.0
53998.0,STARLINK-5128,PAYLOAD,2022-10-18 22:00:00,15.73204221,0.0002271,53.2172,27.4662,29.871,6.8377,1.6491999999999996e-06,-3.9e-06,0.0,0 STARLINK-5128,1 53998U 22125AL  22291.91667824 -.00000390  00000-0  16492-5 0  9995,2 53998  53.2172  27.4662 0002271  29.8710   6.8377 15.73204221  1304,6727.8830000000025,91.533,351.276,348.22,0.0
53998.0,STARLINK-5128,PAYLOAD,2022-10-19 06:00:00,15.73175784,0.0002165,53.2182,25.825,29.7059,95.9694,-6.9906e-05,-0.00010411,0.0,0 STARLINK-5128,1 53998U 22125AL  22292.25001157 -.00010411  00000-0 -69906-4 0  9997,2 53998  53.2182  25.8250 0002165  29.7059  95.9694 15.73175784  2489,6727.964,91.535,351.286,348.37300000000016,0.0
53998.0,STARLINK-5128,PAYLOAD,2022-10-19 14:00:01,15.73134812,0.0002546,53.2183,24.1777,29.4679,185.1143,0.00046646,0.00065176,0.0,0 STARLINK-5128,1 53998U 22125AL  22292.58334491  .00065176  00000-0  46646-3 0  9994,2 53998  53.2183  24.1777 0002546  29.4679 185.1143 15.73134812  1302,6728.081,91.537,351.659,348.233,0.0
53998.0,STARLINK-5128,PAYLOAD,2022-10-19 22:00:00,15.732024,0.0002499,53.2185,22.5274,28.1622,275.2918,0.00016729,0.00022925,0.0,0 STARLINK-5128,1 53998U 22125AL  22292.91667824  .00022925  00000-0  16729-3 0  9994,2 53998  53.2185  22.5274 0002499  28.1622 275.2918 15.73202400  2580,6727.888000000001,91.533,351.435,348.07199999999995,0.0
53998.0,STARLINK-5128,PAYLOAD,2022-10-20 14:00:01,15.73193468,0.0002592,53.2185,19.2296,23.6162,97.7222,0.00012273,0.00016634,0.0,0 STARLINK-5128,1 53998U 22125AL  22293.58334491  .00016634  00000-0  12273-3 0  9999,2 53998  53.2185  19.2296 0002592  23.6162  97.7222 15.73193468  2690,6727.9140000000025,91.534,351.523,348.035,0.0
53998.0,STARLINK-5128,PAYLOAD,2022-10-20 22:00:00,15.73199876,0.0002463999999999,53.218,17.577,21.0722,189.2,-0.00013232,-0.00019152,0.0,0 STARLINK-5128,1 53998U 22125AL  22293.91667824 -.00019152  00000-0 -13232-3 0  9991,2 53998  53.2180  17.5770 0002464  21.0722 189.2000 15.73199876  1302,6727.896,91.533,351.418,348.103,0.0
